{"fetched_at": "2026-06-04T18:22:40.310810+00:00", "line1": "1 35108U 99025DKL 26140.24666749  .00000226  00000-0  14895-3 0  9999", "line2": "2 35108  98.8059 136.7639 0132952 336.0954  23.4077 14.07113558914670"}
{"fetched_at": "2026-06-22T01:53:10.090159+00:00", "line1": "1 35108U 99025DKL 26038.70208405  .00000812  00000+0  47329-3 0  9995", "line2": "2 35108  98.8031  37.8180 0132817 261.0385  97.5731 14.07011667900398"}
